start=new Date('2023-04-27T00:00:00.000Z').valueOf();
sats=[{"REV_AT_EPOCH":"3604","NORAD_CAT_ID":"53693","FILE":"3894261","OBJECT_TYPE":"PAYLOAD","APOAPSIS":"566.991","ECCENTRICITY":"0.00056690","EPHEMERIS_TYPE":"0","OBJECT_NAME":"STARLINK-4566","TLE_LINE1":"1 53693U 22105AX  23116.93820952  .00006474  00000-0  50818-3 0  9993","GP_ID":"230801395","RCS_SIZE":"LARGE","MEAN_MOTION_DDOT":"0.0000000000000","BSTAR":"0.00050818000000","INCLINATION":"97.6545","TLE_LINE2":"2 53693  97.6545 358.7426 0005669  67.0079 293.1742 15.01245735 36048","RA_OF_ASC_NODE":"358.7426","MEAN_ANOMALY":"293.1742","MEAN_MOTION":"15.01245735","EPOCH":"2023-04-26T22:31:01.302528","OBJECT_ID":"2022-105AX","COUNTRY_CODE":"US","PERIOD":"95.920","CENTER_NAME":"EARTH","MEAN_MOTION_DOT":"0.00006474","REF_FRAME":"TEME","MEAN_ELEMENT_THEORY":"SGP4","ELEMENT_SET_NO":"999","CLASSIFICATION_TYPE":"U","ARG_OF_PERICENTER":"67.0079","DECAY_DATE":null,"SEMIMAJOR_AXIS":"6941.191","LAUNCH_DATE":"2022-08-31","SITE":"AFWTR","PERIAPSIS":"559.121","TIME_SYSTEM":"UTC"},{"GP_ID":"230800645","RCS_SIZE":"LARGE","MEAN_MOTION_DDOT":"0.0000000000000","BSTAR":"-0.00004665400000","INCLINATION":"53.2175","TLE_LINE2":"2 53700  53.2175 267.9012 0001415 113.6604 246.4537 15.08859538 36663","RA_OF_ASC_NODE":"267.9012","REV_AT_EPOCH":"3666","NORAD_CAT_ID":"53700","OBJECT_TYPE":"PAYLOAD","FILE":"3894261","APOAPSIS":"540.665","ECCENTRICITY":"0.00014150","EPHEMERIS_TYPE":"0","OBJECT_NAME":"STARLINK-4725","TLE_LINE1":"1 53700U 22107A   23116.80176716 -.00001031  00000-0 -46654-4 0  9992","MEAN_ELEMENT_THEORY":"SGP4","ELEMENT_SET_NO":"999","CLASSIFICATION_TYPE":"U","ARG_OF_PERICENTER":"113.6604","DECAY_DATE":null,"SEMIMAJOR_AXIS":"6917.821","LAUNCH_DATE":"2022-09-05","SITE":"AFETR","PERIAPSIS":"538.707","TIME_SYSTEM":"UTC","MEAN_ANOMALY":"246.4537","MEAN_MOTION":"15.08859538","EPOCH":"2023-04-26T19:14:32.682624","OBJECT_ID":"2022-107A","COUNTRY_CODE":"US","PERIOD":"95.436","CENTER_NAME":"EARTH","MEAN_MOTION_DOT":"-0.00001031","REF_FRAME":"TEME"},{"ELEMENT_SET_NO":"999","MEAN_ELEMENT_THEORY":"SGP4","DECAY_DATE":null,"ARG_OF_PERICENTER":"44.0625","SEMIMAJOR_AXIS":"6917.804","CLASSIFICATION_TYPE":"U","SITE":"AFETR","PERIAPSIS":"539.084","LAUNCH_DATE":"2022-09-05","TIME_SYSTEM":"UTC","EPOCH":"2023-04-26T19:09:15.765696","MEAN_ANOMALY":"316.0434","MEAN_MOTION":"15.08865002","OBJECT_ID":"2022-107B","CENTER_NAME":"EARTH","COUNTRY_CODE":"US","PERIOD":"95.436","MEAN_MOTION_DOT":"0.00027682","REF_FRAME":"TEME","MEAN_MOTION_DDOT":"0.0000000000000","GP_ID":"230800896","RCS_SIZE":"LARGE","BSTAR":"0.00174940000000","RA_OF_ASC_NODE":"267.8763","INCLINATION":"53.2165","TLE_LINE2":"2 53701  53.2165 267.8763 0000846  44.0625 316.0434 15.08865002 36665","REV_AT_EPOCH":"3666","NORAD_CAT_ID":"53701","ECCENTRICITY":"0.00008460","APOAPSIS":"540.254","EPHEMERIS_TYPE":"0","OBJECT_TYPE":"PAYLOAD","FILE":"3894261","TLE_LINE1":"1 53701U 22107B   23116.79809914  .00027682  00000-0  17494-2 0  9990","OBJECT_NAME":"STARLINK-4711"},{"EPHEMERIS_TYPE":"0","ECCENTRICITY":"0.00007250","APOAPSIS":"540.193","FILE":"3894261","OBJECT_TYPE":"PAYLOAD","TLE_LINE1":"1 53702U 22107C   23116.75720057  .00032938  00000-0  20770-2 0  9998","OBJECT_NAME":"STARLINK-4724","NORAD_CAT_ID":"53702","REV_AT_EPOCH":"3689","RA_OF_ASC_NODE":"253.3746","TLE_LINE2":"2 53702  53.2154 253.3746 0000725 127.6861 232.4197 15.08857566 36899","INCLINATION":"53.2154","MEAN_MOTION_DDOT":"0.0000000000000","RCS_SIZE":"LARGE","GP_ID":"230799645","BSTAR":"0.00207700000000","CENTER_NAME":"EARTH","PERIOD":"95.436","COUNTRY_CODE":"US","REF_FRAME":"TEME","MEAN_MOTION_DOT":"0.00032938","EPOCH":"2023-04-26T18:10:22.129248","MEAN_MOTION":"15.08857566","MEAN_ANOMALY":"232.4197","OBJECT_ID":"2022-107C","PERIAPSIS":"539.190","SITE":"AFETR","LAUNCH_DATE":"2022-09-05","TIME_SYSTEM":"UTC","ELEMENT_SET_NO":"999","MEAN_ELEMENT_THEORY":"SGP4","SEMIMAJOR_AXIS":"6917.827","ARG_OF_PERICENTER":"127.6861","DECAY_DATE":null,"CLASSIFICATION_TYPE":"U"},{"SITE":"AFETR","PERIAPSIS":"538.945","LAUNCH_DATE":"2022-09-05","TIME_SYSTEM":"UTC","ELEMENT_SET_NO":"999","MEAN_ELEMENT_THEORY":"SGP4","ARG_OF_PERICENTER":"125.4173","DECAY_DATE":null,"SEMIMAJOR_AXIS":"6917.880","CLASSIFICATION_TYPE":"U","CENTER_NAME":"EARTH","PERIOD":"95.438","COUNTRY_CODE":"US","MEAN_MOTION_DOT":"0.00022116","REF_FRAME":"TEME","EPOCH":"2023-04-26T19:31:52.733856","MEAN_ANOMALY":"234.6928","MEAN_MOTION":"15.08840079","OBJECT_ID":"2022-107D","RA_OF_ASC_NODE":"267.9740","INCLINATION":"53.2157","TLE_LINE2":"2 53703  53.2157 267.9740 0001156 125.4173 234.6928 15.08840079 36661","MEAN_MOTION_DDOT":"0.0000000000000","GP_ID":"230799895","RCS_SIZE":"LARGE","BSTAR":"0.00140330000000","APOAPSIS":"540.545","ECCENTRICITY":"0.00011560","EPHEMERIS_TYPE":"0","OBJECT_TYPE":"PAYLOAD","FILE":"3894261","TLE_LINE1":"1 53703U 22107D   23116.81380479  .00022116  00000-0  14033-2 0  9998","OBJECT_NAME":"STARLINK-4731","REV_AT_EPOCH":"3666","NORAD_CAT_ID":"53703"},{"SITE":"AFETR","PERIAPSIS":"538.964","LAUNCH_DATE":"2022-09-05","TIME_SYSTEM":"UTC","ELEMENT_SET_NO":"999","MEAN_ELEMENT_THEORY":"SGP4","ARG_OF_PERICENTER":"126.0281","DECAY_DATE":null,"SEMIMAJOR_AXIS":"6917.874","CLASSIFICATION_TYPE":"U","CENTER_NAME":"EARTH","COUNTRY_CODE":"US","PERIOD":"95.437","MEAN_MOTION_DOT":"0.00006687","REF_FRAME":"TEME","EPOCH":"2023-04-26T19:04:04.644480","MEAN_ANOMALY":"234.0815","MEAN_MOTION":"15.08842176","OBJECT_ID":"2022-107E","RA_OF_ASC_NODE":"268.5612","INCLINATION":"53.2172","TLE_LINE2":"2 53704  53.2172 268.5612 0001120 126.0281 234.0815 15.08842176 36492","MEAN_MOTION_DDOT":"0.0000000000000","GP_ID":"230801145","RCS_SIZE":"LARGE","BSTAR":"0.00043782000000","ECCENTRICITY":"0.00011200","APOAPSIS":"540.514","EPHEMERIS_TYPE":"0","OBJECT_TYPE":"PAYLOAD","FILE":"3894261","TLE_LINE1":"1 53704U 22107E   23116.79449820  .00006687  00000-0  43782-3 0  9991","OBJECT_NAME":"STARLINK-4714","REV_AT_EPOCH":"3649","NORAD_CAT_ID":"53704"},{"FILE":"3894261","OBJECT_TYPE":"PAYLOAD","ECCENTRICITY":"0.00010850","APOAPSIS":"540.482","EPHEMERIS_TYPE":"0","OBJECT_NAME":"STARLINK-4717","TLE_LINE1":"1 53705U 22107F   23116.72458483  .00023461  00000-0  14871-2 0  9995","REV_AT_EPOCH":"3664","NORAD_CAT_ID":"53705","INCLINATION":"53.2159","TLE_LINE2":"2 53705  53.2159 268.8366 0001085 150.1201 209.9853 15.08844658 36644","RA_OF_ASC_NODE":"268.8366","GP_ID":"230801396","RCS_SIZE":"LARGE","MEAN_MOTION_DDOT":"0.0000000000000","BSTAR":"0.00148710000000","PERIOD":"95.437","COUNTRY_CODE":"US","CENTER_NAME":"EARTH","MEAN_MOTION_DOT":"0.00023461","REF_FRAME":"TEME","MEAN_ANOMALY":"209.9853","MEAN_MOTION":"15.08844658","EPOCH":"2023-04-26T17:23:24.129312","OBJECT_ID":"2022-107F","LAUNCH_DATE":"2022-09-05","SITE":"AFETR","PERIAPSIS":"538.981","TIME_SYSTEM":"UTC","MEAN_ELEMENT_THEORY":"SGP4","ELEMENT_SET_NO":"999","CLASSIFICATION_TYPE":"U","DECAY_DATE":null,"ARG_OF_PERICENTER":"150.1201","SEMIMAJOR_AXIS":"6917.866"},{"DECAY_DATE":null,"ARG_OF_PERICENTER":"103.6802","SEMIMAJOR_AXIS":"6915.866","CLASSIFICATION_TYPE":"U","ELEMENT_SET_NO":"999","MEAN_ELEMENT_THEORY":"SGP4","TIME_SYSTEM":"UTC","SITE":"AFETR","PERIAPSIS":"536.652","LAUNCH_DATE":"2022-09-05","OBJECT_ID":"2022-107G","EPOCH":"2023-04-27T00:00:00.999648","MEAN_ANOMALY":"32.8147","MEAN_MOTION":"15.09499401","MEAN_MOTION_DOT":"-0.00513669","REF_FRAME":"TEME","CENTER_NAME":"EARTH","PERIOD":"95.396","COUNTRY_CODE":"US","BSTAR":"-0.03365700000000","MEAN_MOTION_DDOT":"0.0000000000000","GP_ID":"230800144","RCS_SIZE":"LARGE","RA_OF_ASC_NODE":"267.4433","INCLINATION":"53.2161","TLE_LINE2":"2 53706  53.2161 267.4433 0001560 103.6802  32.8147 15.09499401  1303","REV_AT_EPOCH":"130","NORAD_CAT_ID":"53706","TLE_LINE1":"1 53706U 22107G   23117.00001157 -.00513669  00000-0 -33657-1 0  9998","OBJECT_NAME":"STARLINK-4716","ECCENTRICITY":"0.00015600","APOAPSIS":"538.809","EPHEMERIS_TYPE":"0","OBJECT_TYPE":"PAYLOAD","FILE":"3894261"},{"COUNTRY_CODE":"US","PERIOD":"95.437","CENTER_NAME":"EARTH","REF_FRAME":"TEME","MEAN_MOTION_DOT":"-0.00000677","MEAN_MOTION":"15.08849487","MEAN_ANOMALY":"280.3012","EPOCH":"2023-04-26T15:15:29.598336","OBJECT_ID":"2022-107H","LAUNCH_DATE":"2022-09-05","PERIAPSIS":"539.281","SITE":"AFETR","TIME_SYSTEM":"UTC","MEAN_ELEMENT_THEORY":"SGP4","ELEMENT_SET_NO":"999","CLASSIFICATION_TYPE":"U","SEMIMAJOR_AXIS":"6917.851","DECAY_DATE":null,"ARG_OF_PERICENTER":"79.8052","OBJECT_TYPE":"PAYLOAD","FILE":"3894261","EPHEMERIS_TYPE":"0","ECCENTRICITY":"0.00006290","APOAPSIS":"540.152","OBJECT_NAME":"STARLINK-4667","TLE_LINE1":"1 53707U 22107H   23116.63575924 -.00000677  00000-0 -24453-4 0  9992","NORAD_CAT_ID":"53707","REV_AT_EPOCH":"3684","TLE_LINE2":"2 53707  53.2189 254.0346 0000629  79.8052 280.3012 15.08849487 36845","INCLINATION":"53.2189","RA_OF_ASC_NODE":"254.0346","RCS_SIZE":"LARGE","GP_ID":"230800394","MEAN_MOTION_DDOT":"0.0000000000000","BSTAR":"-0.00002445300000"},{"PERIOD":"95.335","COUNTRY_CODE":"US","CENTER_NAME":"EARTH","REF_FRAME":"TEME","MEAN_MOTION_DOT":"-0.00004052","MEAN_MOTION":"15.10466607","MEAN_ANOMALY":"253.5391","EPOCH":"2023-04-26T12:30:29.100096","OBJECT_ID":"2022-107J","LAUNCH_DATE":"2022-09-05","PERIAPSIS":"533.773","SITE":"AFETR","TIME_SYSTEM":"UTC","MEAN_ELEMENT_THEORY":"SGP4","ELEMENT_SET_NO":"999","CLASSIFICATION_TYPE":"U","SEMIMAJOR_AXIS":"6912.913","ARG_OF_PERICENTER":"106.5762","DECAY_DATE":null,"OBJECT_TYPE":"PAYLOAD","FILE":"3894260","EPHEMERIS_TYPE":"0","APOAPSIS":"535.783","ECCENTRICITY":"0.00014540","OBJECT_NAME":"STARLINK-4694","TLE_LINE1":"1 53708U 22107J   23116.52117014 -.00004052  00000-0 -22603-3 0  9998","NORAD_CAT_ID":"53708","REV_AT_EPOCH":"3682","TLE_LINE2":"2 53708  53.2139 254.7412 0001454 106.5762 253.5391 15.10466607 36827","INCLINATION":"53.2139","RA_OF_ASC_NODE":"254.7412","RCS_SIZE":"LARGE","GP_ID":"230773641","MEAN_MOTION_DDOT":"0.0000000000000","BSTAR":"-0.00022603000000"}];
